[{"OBJECT_NAME":"SL-8 R/B","OBJECT_ID":"1988-053B","EPOCH":"2026-03-13T06:34:55.771104","MEAN_MOTION":14.38918132,"ECCENTRICITY":0.00214777,"INCLINATION":74.0455,"RA_OF_ASC_NODE":105.8585,"ARG_OF_PERICENTER":284.6463,"MEAN_ANOMALY":149.2613,"EPHEMERIS_TYPE":0,"CLASSIFICATION_TYPE":"U","NORAD_CAT_ID":19257,"ELEMENT_SET_NO":999,"REV_AT_EPOCH":97711,"BSTAR":0.00010214025,"MEAN_MOTION_DOT":2.89e-6,"MEAN_MOTION_DDOT":0},{"OBJECT_NAME":"COSMOS 1975","OBJECT_ID":"1988-093A","EPOCH":"2026-03-13T12:32:51.979776","MEAN_MOTION":15.28127804,"ECCENTRICITY":0.00125213,"INCLINATION":82.5183,"RA_OF_ASC_NODE":113.8374,"ARG_OF_PERICENTER":150.4889,"MEAN_ANOMALY":209.7059,"EPHEMERIS_TYPE":0,"CLASSIFICATION_TYPE":"U","NORAD_CAT_ID":19573,"ELEMENT_SET_NO":999,"REV_AT_EPOCH":1999,"BSTAR":0.00028919669,"MEAN_MOTION_DOT":7.979e-5,"MEAN_MOTION_DDOT":0},{"OBJECT_NAME":"SL-14 R/B","OBJECT_ID":"1988-093B","EPOCH":"2026-03-13T09:14:53.206656","MEAN_MOTION":14.85661789,"ECCENTRICITY":0.00214986,"INCLINATION":82.5311,"RA_OF_ASC_NODE":38.5743,"ARG_OF_PERICENTER":29.8356,"MEAN_ANOMALY":131.4245,"EPHEMERIS_TYPE":0,"CLASSIFICATION_TYPE":"U","NORAD_CAT_ID":19574,"ELEMENT_SET_NO":999,"REV_AT_EPOCH":156,"BSTAR":7.9310161e-5,"MEAN_MOTION_DOT":7.14e-6,"MEAN_MOTION_DDOT":0},{"OBJECT_NAME":"SL-16 R/B","OBJECT_ID":"1988-102B","EPOCH":"2026-03-13T07:05:22.803648","MEAN_MOTION":14.1615446,"ECCENTRICITY":0.00141929,"INCLINATION":70.9998,"RA_OF_ASC_NODE":143.911,"ARG_OF_PERICENTER":355.9935,"MEAN_ANOMALY":4.1072,"EPHEMERIS_TYPE":0,"CLASSIFICATION_TYPE":"U","NORAD_CAT_ID":19650,"ELEMENT_SET_NO":999,"REV_AT_EPOCH":92740,"BSTAR":0.00014850091,"MEAN_MOTION_DOT":2.46e-6,"MEAN_MOTION_DDOT":0},{"OBJECT_NAME":"INTERCOSMOS 24","OBJECT_ID":"1989-080A","EPOCH":"2026-03-13T12:51:27.779616","MEAN_MOTION":12.59564337,"ECCENTRICITY":0.11866788,"INCLINATION":82.602,"RA_OF_ASC_NODE":101.8992,"ARG_OF_PERICENTER":283.8845,"MEAN_ANOMALY":63.3245,"EPHEMERIS_TYPE":0,"CLASSIFICATION_TYPE":"U","NORAD_CAT_ID":20261,"ELEMENT_SET_NO":999,"REV_AT_EPOCH":66728,"BSTAR":0.00024049393,"MEAN_MOTION_DOT":8.07e-6,"MEAN_MOTION_DDOT":0},{"OBJECT_NAME":"SL-14 R/B","OBJECT_ID":"1989-080C","EPOCH":"2026-03-13T07:36:08.360352","MEAN_MOTION":12.50498591,"ECCENTRICITY":0.12306732,"INCLINATION":82.5974,"RA_OF_ASC_NODE":170.8587,"ARG_OF_PERICENTER":176.4619,"MEAN_ANOMALY":184.628,"EPHEMERIS_TYPE":0,"CLASSIFICATION_TYPE":"U","NORAD_CAT_ID":20262,"ELEMENT_SET_NO":999,"REV_AT_EPOCH":66060,"BSTAR":0.00018191817,"MEAN_MOTION_DOT":6.22e-6,"MEAN_MOTION_DDOT":0},{"OBJECT_NAME":"DELTA 1 R/B","OBJECT_ID":"1989-089B","EPOCH":"2026-03-13T13:15:32.859360","MEAN_MOTION":14.50666558,"ECCENTRICITY":0.00706158,"INCLINATION":97.0703,"RA_OF_ASC_NODE":279.3768,"ARG_OF_PERICENTER":110.0148,"MEAN_ANOMALY":250.8671,"EPHEMERIS_TYPE":0,"CLASSIFICATION_TYPE":"U","NORAD_CAT_ID":20323,"ELEMENT_SET_NO":999,"REV_AT_EPOCH":89629,"BSTAR":0.00010940826,"MEAN_MOTION_DOT":4.09e-6,"MEAN_MOTION_DDOT":0},{"OBJECT_NAME":"ARIANE 40 R/B","OBJECT_ID":"1990-005H","EPOCH":"2026-03-13T13:35:06.481536","MEAN_MOTION":14.39873438,"ECCENTRICITY":0.00100873,"INCLINATION":98.3075,"RA_OF_ASC_NODE":133.1119,"ARG_OF_PERICENTER":186.5554,"MEAN_ANOMALY":173.5504,"EPHEMERIS_TYPE":0,"CLASSIFICATION_TYPE":"U","NORAD_CAT_ID":20443,"ELEMENT_SET_NO":999,"REV_AT_EPOCH":89336,"BSTAR":0.0001146468,"MEAN_MOTION_DOT":3.18e-6,"MEAN_MOTION_DDOT":0},{"OBJECT_NAME":"DELTA 2 R/B(1)","OBJECT_ID":"1990-008B","EPOCH":"2026-03-13T13:03:59.109696","MEAN_MOTION":15.56513638,"ECCENTRICITY":0.00841404,"INCLINATION":35.6032,"RA_OF_ASC_NODE":149.5449,"ARG_OF_PERICENTER":294.2576,"MEAN_ANOMALY":64.9388,"EPHEMERIS_TYPE":0,"CLASSIFICATION_TYPE":"U","NORAD_CAT_ID":20453,"ELEMENT_SET_NO":999,"REV_AT_EPOCH":92673,"BSTAR":0.00087109249,"MEAN_MOTION_DOT":0.00075823,"MEAN_MOTION_DDOT":0},{"OBJECT_NAME":"COSMOS 2058","OBJECT_ID":"1990-010A","EPOCH":"2026-03-13T08:32:21.482016","MEAN_MOTION":15.11357579,"ECCENTRICITY":0.00088148,"INCLINATION":82.4667,"RA_OF_ASC_NODE":43.8151,"ARG_OF_PERICENTER":332.3646,"MEAN_ANOMALY":27.7114,"EPHEMERIS_TYPE":0,"CLASSIFICATION_TYPE":"U","NORAD_CAT_ID":20465,"ELEMENT_SET_NO":999,"REV_AT_EPOCH":94279,"BSTAR":0.00026988783,"MEAN_MOTION_DOT":4.582e-5,"MEAN_MOTION_DDOT":0},{"OBJECT_NAME":"SL-14 R/B","OBJECT_ID":"1990-010B","EPOCH":"2026-03-13T11:08:01.129344","MEAN_MOTION":14.83572634,"ECCENTRICITY":0.00183868,"INCLINATION":82.4985,"RA_OF_ASC_NODE":263.8423,"ARG_OF_PERICENTER":288.9345,"MEAN_ANOMALY":70.9877,"EPHEMERIS_TYPE":0,"CLASSIFICATION_TYPE":"U","NORAD_CAT_ID":20466,"ELEMENT_SET_NO":999,"REV_AT_EPOCH":92904,"BSTAR":6.1291075e-5,"MEAN_MOTION_DOT":5.3e-6,"MEAN_MOTION_DDOT":0},{"OBJECT_NAME":"SL-14 R/B","OBJECT_ID":"1990-018B","EPOCH":"2026-03-13T08:24:30.341952","MEAN_MOTION":14.82149514,"ECCENTRICITY":0.0017632,"INCLINATION":82.5209,"RA_OF_ASC_NODE":219.6678,"ARG_OF_PERICENTER":80.9566,"MEAN_ANOMALY":279.3643,"EPHEMERIS_TYPE":0,"CLASSIFICATION_TYPE":"U","NORAD_CAT_ID":20511,"ELEMENT_SET_NO":999,"REV_AT_EPOCH":92312,"BSTAR":7.5927046e-5,"MEAN_MOTION_DOT":6.29e-6,"MEAN_MOTION_DDOT":0},{"OBJECT_NAME":"HST","OBJECT_ID":"1990-037B","EPOCH":"2026-03-13T03:21:31.276512","MEAN_MOTION":15.29543468,"ECCENTRICITY":0.00017991,"INCLINATION":28.4723,"RA_OF_ASC_NODE":16.4622,"ARG_OF_PERICENTER":159.6118,"MEAN_ANOMALY":200.455,"EPHEMERIS_TYPE":0,"CLASSIFICATION_TYPE":"U","NORAD_CAT_ID":20580,"ELEMENT_SET_NO":999,"REV_AT_EPOCH":77384,"BSTAR":0.00027135216,"MEAN_MOTION_DOT":8.23e-5,"MEAN_MOTION_DDOT":0},{"OBJECT_NAME":"SL-16 R/B","OBJECT_ID":"1990-046B","EPOCH":"2026-03-13T14:02:44.942496","MEAN_MOTION":14.15011273,"ECCENTRICITY":0.00162091,"INCLINATION":70.9979,"RA_OF_ASC_NODE":289.733,"ARG_OF_PERICENTER":294.3984,"MEAN_ANOMALY":65.5447,"EPHEMERIS_TYPE":0,"CLASSIFICATION_TYPE":"U","NORAD_CAT_ID":20625,"ELEMENT_SET_NO":999,"REV_AT_EPOCH":84894,"BSTAR":-3.8300629e-5,"MEAN_MOTION_DOT":-1.22e-6,"MEAN_MOTION_DDOT":0},{"OBJECT_NAME":"COSMOS 2084","OBJECT_ID":"1990-055A","EPOCH":"2026-03-13T01:01:25.648608","MEAN_MOTION":15.05673287,"ECCENTRICITY":0.00165604,"INCLINATION":62.7918,"RA_OF_ASC_NODE":324.1428,"ARG_OF_PERICENTER":190.8182,"MEAN_ANOMALY":169.2564,"EPHEMERIS_TYPE":0,"CLASSIFICATION_TYPE":"U","NORAD_CAT_ID":20663,"ELEMENT_SET_NO":999,"REV_AT_EPOCH":93682,"BSTAR":0.00020954549,"MEAN_MOTION_DOT":2.848e-5,"MEAN_MOTION_DDOT":0},{"OBJECT_NAME":"SL-6 R/B(2)","OBJECT_ID":"1990-055D","EPOCH":"2026-03-13T11:53:24.229248","MEAN_MOTION":15.03616013,"ECCENTRICITY":0.00254052,"INCLINATION":62.7824,"RA_OF_ASC_NODE":240.9081,"ARG_OF_PERICENTER":347.9553,"MEAN_ANOMALY":12.0936,"EPHEMERIS_TYPE":0,"CLASSIFICATION_TYPE":"U","NORAD_CAT_ID":20666,"ELEMENT_SET_NO":999,"REV_AT_EPOCH":93876,"BSTAR":0.00020313348,"MEAN_MOTION_DOT":2.609e-5,"MEAN_MOTION_DDOT":0},{"OBJECT_NAME":"SL-8 R/B","OBJECT_ID":"1990-078B","EPOCH":"2026-03-13T11:20:49.819776","MEAN_MOTION":14.8919238,"ECCENTRICITY":0.03614402,"INCLINATION":82.9,"RA_OF_ASC_NODE":247.9075,"ARG_OF_PERICENTER":1.2789,"MEAN_ANOMALY":358.9264,"EPHEMERIS_TYPE":0,"CLASSIFICATION_TYPE":"U","NORAD_CAT_ID":20775,"ELEMENT_SET_NO":999,"REV_AT_EPOCH":80986,"BSTAR":0.00043483652,"MEAN_MOTION_DOT":0.00014757,"MEAN_MOTION_DDOT":0}]
