SL-8 R/B                
1 19257U 88053B   26072.27425661  .00000289  00000+0  10214-3 0  9997
2 19257  74.0455 105.8585 0021477 284.6463 149.2613 14.38918132977118
COSMOS 1975             
1 19573U 88093A   26072.52282384  .00007979  00000+0  28920-3 0  9999
2 19573  82.5183 113.8374 0012521 150.4889 209.7059 15.28127804 19995
SL-14 R/B               
1 19574U 88093B   26072.38533804  .00000714  00000+0  79310-4 0  9990
2 19574  82.5311  38.5743 0021498  29.8356 131.4245 14.85661789  1562
SL-16 R/B               
1 19650U 88102B   26072.29540282  .00000246  00000+0  14850-3 0  9991
2 19650  70.9998 143.9110 0014192 355.9935   4.1072 14.16154460927408
INTERCOSMOS 24          
1 20261U 89080A   26072.53573819  .00000807  00000+0  24049-3 0  9990
2 20261  82.6020 101.8992 1186678 283.8845  63.3245 12.59564337667283
SL-14 R/B               
1 20262U 89080C   26072.31676343  .00000622  00000+0  18192-3 0  9990
2 20262  82.5974 170.8587 1230673 176.4619 184.6280 12.50498591660602
DELTA 1 R/B             
1 20323U 89089B   26072.55246365  .00000409  00000+0  10941-3 0  9997
2 20323  97.0703 279.3768 0070615 110.0148 250.8671 14.50666558896293
ARIANE 40 R/B           
1 20443U 90005H   26072.56604724  .00000318  00000+0  11465-3 0  9999
2 20443  98.3075 133.1119 0010087 186.5554 173.5504 14.39873438893360
DELTA 2 R/B(1)          
1 20453U 90008B   26072.54443414  .00075823  00000+0  87109-3 0  9999
2 20453  35.6032 149.5449 0084140 294.2576  64.9388 15.56513638926731
COSMOS 2058             
1 20465U 90010A   26072.35580419  .00004582  00000+0  26989-3 0  9994
2 20465  82.4667  43.8151 0008814 332.3646  27.7114 15.11357579942799
SL-14 R/B               
1 20466U 90010B   26072.46390196  .00000530  00000+0  61291-4 0  9993
2 20466  82.4985 263.8423 0018386 288.9345  70.9877 14.83572634929044
SL-14 R/B               
1 20511U 90018B   26072.35035118  .00000629  00000+0  75927-4 0  9990
2 20511  82.5209 219.6678 0017632  80.9566 279.3643 14.82149514923129
HST                     
1 20580U 90037B   26072.13994533  .00008230  00000+0  27135-3 0  9991
2 20580  28.4723  16.4622 0001799 159.6118 200.4550 15.29543468773843
SL-16 R/B               
1 20625U 90046B   26072.58524239 -.00000122  00000+0 -38301-4 0  9994
2 20625  70.9979 289.7330 0016209 294.3984  65.5447 14.15011273848946
COSMOS 2084             
1 20663U 90055A   26072.04265797  .00002848  00000+0  20955-3 0  9998
2 20663  62.7918 324.1428 0016560 190.8182 169.2564 15.05673287936828
SL-6 R/B(2)             
1 20666U 90055D   26072.49541932  .00002609  00000+0  20313-3 0  9991
2 20666  62.7824 240.9081 0025405 347.9553  12.0936 15.03616013938767
SL-8 R/B                
1 20775U 90078B   26072.47279884  .00014757  00000+0  43484-3 0  9990
2 20775  82.9000 247.9075 0361440   1.2789 358.9264 14.89192380809864
